{"type": "FeatureCollection", "features": [ {"type": "Feature", "properties": {"norad_id": 42987, "name": "SKYSAT-C11", "group": "resource", "lat": -48.001092870509986, "lon": -56.1516188558677, "alt_km": 430.70259701849136, "timestamp": "2025-12-20T11:30:28.028644+00:00", "meta": {"OBJECT_NAME": "SKYSAT-C11", "OBJECT_ID": "2017-068A", "EPOCH": "2025-12-20T02:45:55.725120", "MEAN_MOTION": 15.47740992, "ECCENTRICITY": 0.0001158, "INCLINATION": 97.4144, "RA_OF_ASC_NODE": 131.7912, "ARG_OF_PERICENTER": 100.7649, "MEAN_ANOMALY": 259.3731, "EPHEMERIS_TYPE": 0, "CLASSIFICATION_TYPE": "U", "NORAD_CAT_ID": 42987, "ELEMENT_SET_NO": 999, "REV_AT_EPOCH": 45545, "BSTAR": 0.00030942, "MEAN_MOTION_DOT": 0.00015943, "MEAN_MOTION_DDOT": 0}, "tle": {"line1": "1 42987U 17068A   25354.11522830  .00015943  00000+0  30942-3 0  9995", "line2": "2 42987  97.4144 131.7912 0001158 100.7649 259.3731 15.47740992455458"}}, "geometry": {"type": "Point", "coordinates": [-56.1516188558677, -48.001092870509986]}}, {"type": "Feature", "properties": {"norad_id": 42988, "name": "SKYSAT-C10", "group": "resource", "lat": -58.00554248458595, "lon": -66.69888309148556, "alt_km": 479.7707653169082, "timestamp": "2025-12-20T11:30:28.028654+00:00", "meta": {"OBJECT_NAME": "SKYSAT-C10", "OBJECT_ID": "2017-068B", "EPOCH": "2025-12-20T02:37:56.935200", "MEAN_MOTION": 15.32208744, "ECCENTRICITY": 0.0005442, "INCLINATION": 97.4263, "RA_OF_ASC_NODE": 124.9815, "ARG_OF_PERICENTER": 83.4848, "MEAN_ANOMALY": 276.7013, "EPHEMERIS_TYPE": 0, "CLASSIFICATION_TYPE": "U", "NORAD_CAT_ID": 42988, "ELEMENT_SET_NO": 999, "REV_AT_EPOCH": 45492, "BSTAR": 0.00024786, "MEAN_MOTION_DOT": 7.632e-05, "MEAN_MOTION_DDOT": 0}, "tle": {"line1": "1 42988U 17068B   25354.10968675  .00007632  00000+0  24786-3 0  9991", "line2": "2 42988  97.4263 124.9815 0005442  83.4848 276.7013 15.32208744454920"}}, "geometry": {"type": "Point", "coordinates": [-66.69888309148556, -58.00554248458595]}}, {"type": "Feature", "properties": {"norad_id": 42989, "name": "SKYSAT-C9", "group": "resource", "lat": -17.677494296474283, "lon": -57.58526689483592, "alt_km": 467.4158632258268, "timestamp": "2025-12-20T11:30:28.028664+00:00", "meta": {"OBJECT_NAME": "SKYSAT-C9", "OBJECT_ID": "2017-068C", "EPOCH": "2025-12-19T22:08:39.748128", "MEAN_MOTION": 15.36222028, "ECCENTRICITY": 0.0010522, "INCLINATION": 97.42, "RA_OF_ASC_NODE": 124.2339, "ARG_OF_PERICENTER": 64.896, "MEAN_ANOMALY": 295.3374, "EPHEMERIS_TYPE": 0, "CLASSIFICATION_TYPE": "U", "NORAD_CAT_ID": 42989, "ELEMENT_SET_NO": 999, "REV_AT_EPOCH": 45518, "BSTAR": 0.00026715, "MEAN_MOTION_DOT": 9.366e-05, "MEAN_MOTION_DDOT": 0}, "tle": {"line1": "1 42989U 17068C   25353.92268227  .00009366  00000+0  26715-3 0  9997", "line2": "2 42989  97.4200 124.2339 0010522  64.8960 295.3374 15.36222028455180"}}, "geometry": {"type": "Point", "coordinates": [-57.58526689483592, -17.677494296474283]}}, {"type": "Feature", "properties": {"norad_id": 42990, "name": "SKYSAT-C8", "group": "resource", "lat": 78.353822338496, "lon": 85.23952777355339, "alt_km": 459.8573217646217, "timestamp": "2025-12-20T11:30:28.028674+00:00", "meta": {"OBJECT_NAME": "SKYSAT-C8", "OBJECT_ID": "2017-068D", "EPOCH": "2025-12-19T22:37:25.665024", "MEAN_MOTION": 15.33070014, "ECCENTRICITY": 0.0001092, "INCLINATION": 97.4285, "RA_OF_ASC_NODE": 123.9747, "ARG_OF_PERICENTER": 308.4211, "MEAN_ANOMALY": 51.6933, "EPHEMERIS_TYPE": 0, "CLASSIFICATION_TYPE": "U", "NORAD_CAT_ID": 42990, "ELEMENT_SET_NO": 999, "REV_AT_EPOCH": 45481, "BSTAR": 0.00025399, "MEAN_MOTION_DOT": 8.035e-05, "MEAN_MOTION_DDOT": 0}, "tle": {"line1": "1 42990U 17068D   25353.94265816  .00008035  00000+0  25399-3 0  9991", "line2": "2 42990  97.4285 123.9747 0001092 308.4211  51.6933 15.33070014454818"}}, "geometry": {"type": "Point", "coordinates": [85.23952777355339, 78.353822338496]}}, {"type": "Feature", "properties": {"norad_id": 42991, "name": "SKYSAT-C7", "group": "resource", "lat": -77.78868057421138, "lon": 162.63058536469532, "alt_km": 477.70754946924626, "timestamp": "2025-12-20T11:30:28.028684+00:00", "meta": {"OBJECT_NAME": "SKYSAT-C7", "OBJECT_ID": "2017-068E", "EPOCH": "2025-12-20T02:27:17.811072", "MEAN_MOTION": 15.32471858, "ECCENTRICITY": 0.0007193, "INCLINATION": 97.4292, "RA_OF_ASC_NODE": 125.1704, "ARG_OF_PERICENTER": 34.1926, "MEAN_ANOMALY": 325.9777, "EPHEMERIS_TYPE": 0, "CLASSIFICATION_TYPE": "U", "NORAD_CAT_ID": 42991, "ELEMENT_SET_NO": 999, "REV_AT_EPOCH": 45490, "BSTAR": 0.00024419, "MEAN_MOTION_DOT": 7.583e-05, "MEAN_MOTION_DDOT": 0}, "tle": {"line1": "1 42991U 17068E   25354.10228948  .00007583  00000+0  24419-3 0  9995", "line2": "2 42991  97.4292 125.1704 0007193  34.1926 325.9777 15.32471858454901"}}, "geometry": {"type": "Point", "coordinates": [162.63058536469532, -77.78868057421138]}}, {"type": "Feature", "properties": {"norad_id": 42992, "name": "SKYSAT-C6", "group": "resource", "lat": 13.107645689533658, "lon": 124.23909162645212, "alt_km": 469.8692735422701, "timestamp": "2025-12-20T11:30:28.028694+00:00", "meta": {"OBJECT_NAME": "SKYSAT-C6", "OBJECT_ID": "2017-068F", "EPOCH": "2025-12-19T21:20:18.812832", "MEAN_MOTION": 15.31627446, "ECCENTRICITY": 0.0004995, "INCLINATION": 97.4326, "RA_OF_ASC_NODE": 125.389, "ARG_OF_PERICENTER": 63.135, "MEAN_ANOMALY": 297.0401, "EPHEMERIS_TYPE": 0, "CLASSIFICATION_TYPE": "U", "NORAD_CAT_ID": 42992, "ELEMENT_SET_NO": 999, "REV_AT_EPOCH": 45485, "BSTAR": 0.00024148, "MEAN_MOTION_DOT": 7.299e-05, "MEAN_MOTION_DDOT": 0}, "tle": {"line1": "1 42992U 17068F   25353.88910663  .00007299  00000+0  24148-3 0  9995", "line2": "2 42992  97.4326 125.3890 0004995  63.1350 297.0401 15.31627446454850"}}, "geometry": {"type": "Point", "coordinates": [124.23909162645212, 13.107645689533658]}}, {"type": "Feature", "properties": {"norad_id": 43111, "name": "CARTOSAT-2F", "group": "resource", "lat": 41.72504667184537, "lon": -121.32375105225522, "alt_km": 504.1238736676196, "timestamp": "2025-12-20T11:30:28.028703+00:00", "meta": {"OBJECT_NAME": "CARTOSAT-2F", "OBJECT_ID": "2018-004A", "EPOCH": "2025-12-20T04:34:49.253376", "MEAN_MOTION": 15.19191936, "ECCENTRICITY": 0.0001371, "INCLINATION": 97.4309, "RA_OF_ASC_NODE": 51.7086, "ARG_OF_PERICENTER": 112.2397, "MEAN_ANOMALY": 247.8983, "EPHEMERIS_TYPE": 0, "CLASSIFICATION_TYPE": "U", "NORAD_CAT_ID": 43111, "ELEMENT_SET_NO": 999, "REV_AT_EPOCH": 44015, "BSTAR": 0.00021031, "MEAN_MOTION_DOT": 4.357e-05, "MEAN_MOTION_DDOT": 0}, "tle": {"line1": "1 43111U 18004A   25354.19084784  .00004357  00000+0  21031-3 0  9991", "line2": "2 43111  97.4309  51.7086 0001371 112.2397 247.8983 15.19191936440158"}}, "geometry": {"type": "Point", "coordinates": [-121.32375105225522, 41.72504667184537]}}, {"type": "Feature", "properties": {"norad_id": 43259, "name": "GAOFEN-1 02", "group": "resource", "lat": 27.245542553426965, "lon": -123.53283072821087, "alt_km": 638.2450011842284, "timestamp": "2025-12-20T11:30:28.028713+00:00", "meta": {"OBJECT_NAME": "GAOFEN-1 02", "OBJECT_ID": "2018-031A", "EPOCH": "2025-12-20T04:18:49.600800", "MEAN_MOTION": 14.76428621, "ECCENTRICITY": 0.0002269, "INCLINATION": 98.0802, "RA_OF_ASC_NODE": 51.9722, "ARG_OF_PERICENTER": 188.3773, "MEAN_ANOMALY": 171.7399, "EPHEMERIS_TYPE": 0, "CLASSIFICATION_TYPE": "U", "NORAD_CAT_ID": 43259, "ELEMENT_SET_NO": 999, "REV_AT_EPOCH": 41628, "BSTAR": 6.4289e-05, "MEAN_MOTION_DOT": 3.95e-06, "MEAN_MOTION_DDOT": 0}, "tle": {"line1": "1 43259U 18031A   25354.17974075  .00000395  00000+0  64289-4 0  9994", "line2": "2 43259  98.0802  51.9722 0002269 188.3773 171.7399 14.76428621416283"}}, "geometry": {"type": "Point", "coordinates": [-123.53283072821087, 27.245542553426965]}}, {"type": "Feature", "properties": {"norad_id": 43260, "name": "GAOFEN-1 03", "group": "resource", "lat": -81.70796943287644, "lon": 155.08826888500417, "alt_km": 646.7377082369649, "timestamp": "2025-12-20T11:30:28.028723+00:00", "meta": {"OBJECT_NAME": "GAOFEN-1 03", "OBJECT_ID": "2018-031B", "EPOCH": "2025-12-20T05:25:02.004096", "MEAN_MOTION": 14.76450893, "ECCENTRICITY": 0.0001704, "INCLINATION": 98.0789, "RA_OF_ASC_NODE": 51.8937, "ARG_OF_PERICENTER": 282.8678, "MEAN_ANOMALY": 77.2341, "EPHEMERIS_TYPE": 0, "CLASSIFICATION_TYPE": "U", "NORAD_CAT_ID": 43260, "ELEMENT_SET_NO": 999, "REV_AT_EPOCH": 41628, "BSTAR": 9.6009e-05, "MEAN_MOTION_DOT": 6.16e-06, "MEAN_MOTION_DDOT": 0}, "tle": {"line1": "1 43260U 18031B   25354.22571764  .00000616  00000+0  96009-4 0  9991", "line2": "2 43260  98.0789  51.8937 0001704 282.8678  77.2341 14.76450893416286"}}, "geometry": {"type": "Point", "coordinates": [155.08826888500417, -81.70796943287644]}}, {"type": "Feature", "properties": {"norad_id": 43262, "name": "GAOFEN-1 04", "group": "resource", "lat": 37.133287212253634, "lon": 46.14294098062347, "alt_km": 637.5145824502388, "timestamp": "2025-12-20T11:30:28.028733+00:00", "meta": {"OBJECT_NAME": "GAOFEN-1 04", "OBJECT_ID": "2018-031D", "EPOCH": "2025-12-20T04:49:55.420032", "MEAN_MOTION": 14.76421514, "ECCENTRICITY": 7.08e-05, "INCLINATION": 98.0805, "RA_OF_ASC_NODE": 52.0403, "ARG_OF_PERICENTER": 53.6718, "MEAN_ANOMALY": 306.4556, "EPHEMERIS_TYPE": 0, "CLASSIFICATION_TYPE": "U", "NORAD_CAT_ID": 43262, "ELEMENT_SET_NO": 999, "REV_AT_EPOCH": 41627, "BSTAR": 0.00013866, "MEAN_MOTION_DOT": 9.12e-06, "MEAN_MOTION_DDOT": 0}, "tle": {"line1": "1 43262U 18031D   25354.20133588  .00000912  00000+0  13866-3 0  9997", "line2": "2 43262  98.0805  52.0403 0000708  53.6718 306.4556 14.76421514416272"}}, "geometry": {"type": "Point", "coordinates": [46.14294098062347, 37.133287212253634]}}]}